[{"OBJECT_NAME":"STARLINK-30982","OBJECT_ID":"2023-191E","EPOCH":"2026-03-09T11:18:26.892576","MEAN_MOTION":15.2749096,"ECCENTRICITY":0.00010719,"INCLINATION":42.9984,"RA_OF_ASC_NODE":105.0294,"ARG_OF_PERICENTER":306.8199,"MEAN_ANOMALY":53.2554,"EPHEMERIS_TYPE":0,"CLASSIFICATION_TYPE":"U","NORAD_CAT_ID":58512,"ELEMENT_SET_NO":999,"REV_AT_EPOCH":12543,"BSTAR":0.00068716051,"MEAN_MOTION_DOT":0.00018644,"MEAN_MOTION_DDOT":0},{"OBJECT_NAME":"OBJECT B","OBJECT_ID":"2024-203B","EPOCH":"2026-03-09T23:52:52.928256","MEAN_MOTION":15.27506959,"ECCENTRICITY":0.00103904,"INCLINATION":97.4268,"RA_OF_ASC_NODE":139.5887,"ARG_OF_PERICENTER":321.1475,"MEAN_ANOMALY":38.9016,"EPHEMERIS_TYPE":0,"CLASSIFICATION_TYPE":"U","NORAD_CAT_ID":61870,"ELEMENT_SET_NO":999,"REV_AT_EPOCH":7381,"BSTAR":0.00063263842,"MEAN_MOTION_DOT":0.00016997,"MEAN_MOTION_DDOT":0}]
